{
  "norad_id": 66063,
  "name": "STARLINK-35562",
  "history": [
    {
      "epoch": "2026-03-28T14:45:09.978048Z",
      "apogee_km": 475.96443685214217,
      "perigee_km": 474.42791955358916,
      "latitude_deg": -1.6612552721747785e-05,
      "longitude_deg": 110.41900180291952,
      "height_km": 475.9622006015931,
      "semi_major_axis_km": 6853.333178202865,
      "eccentricity": 0.0001121,
      "inclination_deg": 53.1579,
      "raan_deg": 157.7432,
      "arg_perigee_deg": 80.102,
      "mean_anomaly_deg": 280.0107,
      "mean_motion_rev_day": 15.30206327
    }
  ]
}